{
  "type": "FeatureCollection",
  "features": [
    {
      "type": "Feature",
      "properties": {
        "name": "สำนักงานอธิการบดี (Office of the President)",
        "height": 15,
        "levels": 4,
        "building": "university"
      },
      "geometry": {
        "type": "Polygon",
        "coordinates": [
          [
            [
              104.9029,
              15.1196
            ],
            [
              104.9035,
              15.1196
            ],
            [
              104.9035,
              15.12
            ],
            [
              104.9029,
              15.12
            ],
            [
              104.9029,
              15.1196
            ]
          ]
        ]
      }
    },
    {
      "type": "Feature",
      "properties": {
        "name": "หอสมุดกลาง ม.อุบลฯ (Central Library)",
        "height": 20,
        "levels": 6,
        "building": "university"
      },
      "geometry": {
        "type": "Polygon",
        "coordinates": [
          [
            [
              104.90385,
              15.12025
            ],
            [
              104.90455,
              15.12025
            ],
            [
              104.90455,
              15.12075
            ],
            [
              104.90385,
              15.12075
            ],
            [
              104.90385,
              15.12025
            ]
          ]
        ]
      }
    },
    {
      "type": "Feature",
      "properties": {
        "name": "อาคารเฉลิมพระเกียรติ 7 รอบ พระชนมพรรษา",
        "height": 25,
        "levels": 7,
        "building": "university"
      },
      "geometry": {
        "type": "Polygon",
        "coordinates": [
          [
            [
              104.90405,
              15.118500000000001
            ],
            [
              104.90495,
              15.118500000000001
            ],
            [
              104.90495,
              15.1191
            ],
            [
              104.90405,
              15.1191
            ],
            [
              104.90405,
              15.118500000000001
            ]
          ]
        ]
      }
    },
    {
      "type": "Feature",
      "properties": {
        "name": "อาคารศูนย์เครื่องมือวิทยาศาสตร์",
        "height": 12,
        "levels": 3,
        "building": "university"
      },
      "geometry": {
        "type": "Polygon",
        "coordinates": [
          [
            [
              104.90525000000001,
              15.1213
            ],
            [
              104.90575,
              15.1213
            ],
            [
              104.90575,
              15.121699999999999
            ],
            [
              104.90525000000001,
              15.121699999999999
            ],
            [
              104.90525000000001,
              15.1213
            ]
          ]
        ]
      }
    },
    {
      "type": "Feature",
      "properties": {
        "name": "คณะวิศวกรรมศาสตร์ อาคาร EN1",
        "height": 18,
        "levels": 5,
        "building": "university"
      },
      "geometry": {
        "type": "Polygon",
        "coordinates": [
          [
            [
              104.9061,
              15.116950000000001
            ],
            [
              104.9069,
              15.116950000000001
            ],
            [
              104.9069,
              15.11745
            ],
            [
              104.9061,
              15.11745
            ],
            [
              104.9061,
              15.116950000000001
            ]
          ]
        ]
      }
    },
    {
      "type": "Feature",
      "properties": {
        "name": "คณะวิศวกรรมศาสตร์ อาคาร EN2 (ปฏิบัติการ)",
        "height": 14,
        "levels": 4,
        "building": "university"
      },
      "geometry": {
        "type": "Polygon",
        "coordinates": [
          [
            [
              104.90685,
              15.1163
            ],
            [
              104.90755,
              15.1163
            ],
            [
              104.90755,
              15.1167
            ],
            [
              104.90685,
              15.1167
            ],
            [
              104.90685,
              15.1163
            ]
          ]
        ]
      }
    },
    {
      "type": "Feature",
      "properties": {
        "name": "คณะวิทยาศาสตร์ อาคาร SC1",
        "height": 16,
        "levels": 5,
        "building": "university"
      },
      "geometry": {
        "type": "Polygon",
        "coordinates": [
          [
            [
              104.90315,
              15.12195
            ],
            [
              104.90384999999999,
              15.12195
            ],
            [
              104.90384999999999,
              15.122449999999999
            ],
            [
              104.90315,
              15.122449999999999
            ],
            [
              104.90315,
              15.12195
            ]
          ]
        ]
      }
    },
    {
      "type": "Feature",
      "properties": {
        "name": "คณะวิทยาศาสตร์ อาคาร SC2",
        "height": 14,
        "levels": 4,
        "building": "university"
      },
      "geometry": {
        "type": "Polygon",
        "coordinates": [
          [
            [
              104.9037,
              15.1228
            ],
            [
              104.90429999999999,
              15.1228
            ],
            [
              104.90429999999999,
              15.123199999999999
            ],
            [
              104.9037,
              15.123199999999999
            ],
            [
              104.9037,
              15.1228
            ]
          ]
        ]
      }
    },
    {
      "type": "Feature",
      "properties": {
        "name": "คณะเภสัชศาสตร์",
        "height": 15,
        "levels": 4,
        "building": "university"
      },
      "geometry": {
        "type": "Polygon",
        "coordinates": [
          [
            [
              104.90345,
              15.1156
            ],
            [
              104.90415,
              15.1156
            ],
            [
              104.90415,
              15.116
            ],
            [
              104.90345,
              15.116
            ],
            [
              104.90345,
              15.1156
            ]
          ]
        ]
      }
    },
    {
      "type": "Feature",
      "properties": {
        "name": "คณะพยาบาลศาสตร์",
        "height": 14,
        "levels": 4,
        "building": "university"
      },
      "geometry": {
        "type": "Polygon",
        "coordinates": [
          [
            [
              104.9042,
              15.114600000000001
            ],
            [
              104.9048,
              15.114600000000001
            ],
            [
              104.9048,
              15.115
            ],
            [
              104.9042,
              15.115
            ],
            [
              104.9042,
              15.114600000000001
            ]
          ]
        ]
      }
    },
    {
      "type": "Feature",
      "properties": {
        "name": "คณะบริหารศาสตร์",
        "height": 18,
        "levels": 5,
        "building": "university"
      },
      "geometry": {
        "type": "Polygon",
        "coordinates": [
          [
            [
              104.9011,
              15.12095
            ],
            [
              104.9019,
              15.12095
            ],
            [
              104.9019,
              15.12145
            ],
            [
              104.9011,
              15.12145
            ],
            [
              104.9011,
              15.12095
            ]
          ]
        ]
      }
    },
    {
      "type": "Feature",
      "properties": {
        "name": "คณะศิลปศาสตร์",
        "height": 16,
        "levels": 5,
        "building": "university"
      },
      "geometry": {
        "type": "Polygon",
        "coordinates": [
          [
            [
              104.90145,
              15.1226
            ],
            [
              104.90214999999999,
              15.1226
            ],
            [
              104.90214999999999,
              15.123
            ],
            [
              104.90145,
              15.123
            ],
            [
              104.90145,
              15.1226
            ]
          ]
        ]
      }
    },
    {
      "type": "Feature",
      "properties": {
        "name": "คณะรัฐศาสตร์",
        "height": 15,
        "levels": 4,
        "building": "university"
      },
      "geometry": {
        "type": "Polygon",
        "coordinates": [
          [
            [
              104.9019,
              15.1236
            ],
            [
              104.90249999999999,
              15.1236
            ],
            [
              104.90249999999999,
              15.123999999999999
            ],
            [
              104.9019,
              15.123999999999999
            ],
            [
              104.9019,
              15.1236
            ]
          ]
        ]
      }
    },
    {
      "type": "Feature",
      "properties": {
        "name": "คณะนิติศาสตร์",
        "height": 15,
        "levels": 4,
        "building": "university"
      },
      "geometry": {
        "type": "Polygon",
        "coordinates": [
          [
            [
              104.9025,
              15.1243
            ],
            [
              104.9031,
              15.1243
            ],
            [
              104.9031,
              15.124699999999999
            ],
            [
              104.9025,
              15.124699999999999
            ],
            [
              104.9025,
              15.1243
            ]
          ]
        ]
      }
    },
    {
      "type": "Feature",
      "properties": {
        "name": "คณะเกษตรศาสตร์",
        "height": 12,
        "levels": 3,
        "building": "university"
      },
      "geometry": {
        "type": "Polygon",
        "coordinates": [
          [
            [
              104.9076,
              15.113700000000001
            ],
            [
              104.9084,
              15.113700000000001
            ],
            [
              104.9084,
              15.1143
            ],
            [
              104.9076,
              15.1143
            ],
            [
              104.9076,
              15.113700000000001
            ]
          ]
        ]
      }
    },
    {
      "type": "Feature",
      "properties": {
        "name": "ศูนย์กีฬาและโรงยิมเนเซียม ม.อุบลฯ",
        "height": 14,
        "levels": 4,
        "building": "university"
      },
      "geometry": {
        "type": "Polygon",
        "coordinates": [
          [
            [
              104.9007,
              15.116650000000002
            ],
            [
              104.9017,
              15.116650000000002
            ],
            [
              104.9017,
              15.11735
            ],
            [
              104.9007,
              15.11735
            ],
            [
              104.9007,
              15.116650000000002
            ]
          ]
        ]
      }
    },
    {
      "type": "Feature",
      "properties": {
        "name": "โรงอาหารกลาง 1 (Green Canteen)",
        "height": 8,
        "levels": 2,
        "building": "university"
      },
      "geometry": {
        "type": "Polygon",
        "coordinates": [
          [
            [
              104.90525000000001,
              15.119
            ],
            [
              104.90575,
              15.119
            ],
            [
              104.90575,
              15.119399999999999
            ],
            [
              104.90525000000001,
              15.119399999999999
            ],
            [
              104.90525000000001,
              15.119
            ]
          ]
        ]
      }
    },
    {
      "type": "Feature",
      "properties": {
        "name": "โรงอาหารกลาง 2",
        "height": 8,
        "levels": 2,
        "building": "university"
      },
      "geometry": {
        "type": "Polygon",
        "coordinates": [
          [
            [
              104.90225000000001,
              15.1218
            ],
            [
              104.90275,
              15.1218
            ],
            [
              104.90275,
              15.1222
            ],
            [
              104.90225000000001,
              15.1222
            ],
            [
              104.90225000000001,
              15.1218
            ]
          ]
        ]
      }
    },
    {
      "type": "Feature",
      "properties": {
        "name": "โรงพยาบาลมหาวิทยาลัยอุบลราชธานี",
        "height": 24,
        "levels": 7,
        "building": "university"
      },
      "geometry": {
        "type": "Polygon",
        "coordinates": [
          [
            [
              104.90195,
              15.112850000000002
            ],
            [
              104.90305000000001,
              15.112850000000002
            ],
            [
              104.90305000000001,
              15.11355
            ],
            [
              104.90195,
              15.11355
            ],
            [
              104.90195,
              15.112850000000002
            ]
          ]
        ]
      }
    },
    {
      "type": "Feature",
      "properties": {
        "name": "หอพักนักศึกษาในกำกับ ม.อุบลฯ (กลุ่มหอพักใน)",
        "height": 18,
        "levels": 5,
        "building": "university"
      },
      "geometry": {
        "type": "Polygon",
        "coordinates": [
          [
            [
              104.9044,
              15.1247
            ],
            [
              104.9056,
              15.1247
            ],
            [
              104.9056,
              15.1253
            ],
            [
              104.9044,
              15.1253
            ],
            [
              104.9044,
              15.1247
            ]
          ]
        ]
      }
    }
  ]
}